start=new Date('2023-02-21T00:00:00.000Z').valueOf();
sats=[{"GP_ID":"226158144","OBJECT_TYPE":"PAYLOAD","MEAN_ELEMENT_THEORY":"SGP4","NORAD_CAT_ID":"52121","ELEMENT_SET_NO":"999","EPHEMERIS_TYPE":"0","REV_AT_EPOCH":"5285","EPOCH":"2023-02-20T09:41:45.457440","ECCENTRICITY":"0.00015310","DECAY_DATE":null,"ARG_OF_PERICENTER":"93.6143","TLE_LINE2":"2 52121  53.2168  26.8560 0001531  93.6143 266.5024 15.08865157 52852","RA_OF_ASC_NODE":"26.8560","INCLINATION":"53.2168","PERIAPSIS":"538.609","RCS_SIZE":"LARGE","TLE_LINE1":"1 52121U 22029AK  23051.40399835  .00011395  00000-0  73238-3 0  9993","CENTER_NAME":"EARTH","LAUNCH_DATE":"2022-03-19","TIME_SYSTEM":"UTC","MEAN_MOTION":"15.08865157","FILE":"3815761","REF_FRAME":"TEME","BSTAR":"0.00073238000000","MEAN_ANOMALY":"266.5024","OBJECT_ID":"2022-029AK","OBJECT_NAME":"STARLINK-3678","SITE":"AFETR","COUNTRY_CODE":"US","MEAN_MOTION_DOT":"0.00011395","PERIOD":"95.436","APOAPSIS":"540.728","MEAN_MOTION_DDOT":"0.0000000000000","CLASSIFICATION_TYPE":"U","SEMIMAJOR_AXIS":"6917.803"},{"MEAN_ELEMENT_THEORY":"SGP4","NORAD_CAT_ID":"52122","GP_ID":"226168362","OBJECT_TYPE":"PAYLOAD","EPOCH":"2023-02-20T16:33:46.922688","ECCENTRICITY":"0.00019590","REV_AT_EPOCH":"5276","ELEMENT_SET_NO":"999","EPHEMERIS_TYPE":"0","RA_OF_ASC_NODE":"35.5757","TLE_LINE2":"2 52122  53.2159  35.5757 0001959  86.4110 273.7106 15.08842193 52762","ARG_OF_PERICENTER":"86.4110","DECAY_DATE":null,"LAUNCH_DATE":"2022-03-19","CENTER_NAME":"EARTH","TIME_SYSTEM":"UTC","TLE_LINE1":"1 52122U 22029AL  23051.69012642 -.00000224  00000-0  40037-5 0  9996","PERIAPSIS":"538.383","INCLINATION":"53.2159","RCS_SIZE":"LARGE","FILE":"3816112","REF_FRAME":"TEME","MEAN_MOTION":"15.08842193","OBJECT_NAME":"STARLINK-3726","OBJECT_ID":"2022-029AL","MEAN_ANOMALY":"273.7106","BSTAR":"0.00000400370000","MEAN_MOTION_DOT":"-0.00000224","PERIOD":"95.437","COUNTRY_CODE":"US","SITE":"AFETR","CLASSIFICATION_TYPE":"U","MEAN_MOTION_DDOT":"0.0000000000000","SEMIMAJOR_AXIS":"6917.874","APOAPSIS":"541.094"},{"OBJECT_ID":"2022-029AM","MEAN_ANOMALY":"266.6674","BSTAR":"0.00061900000000","OBJECT_NAME":"STARLINK-3725","MEAN_MOTION":"15.08854802","REF_FRAME":"TEME","FILE":"3815761","SEMIMAJOR_AXIS":"6917.835","CLASSIFICATION_TYPE":"U","MEAN_MOTION_DDOT":"0.0000000000000","APOAPSIS":"540.665","PERIOD":"95.437","MEAN_MOTION_DOT":"0.00009581","SITE":"AFETR","COUNTRY_CODE":"US","REV_AT_EPOCH":"5285","EPHEMERIS_TYPE":"0","ELEMENT_SET_NO":"999","ECCENTRICITY":"0.00013950","EPOCH":"2023-02-20T07:55:47.174304","GP_ID":"226158645","OBJECT_TYPE":"PAYLOAD","NORAD_CAT_ID":"52123","MEAN_ELEMENT_THEORY":"SGP4","RCS_SIZE":"LARGE","PERIAPSIS":"538.735","INCLINATION":"53.2155","TIME_SYSTEM":"UTC","CENTER_NAME":"EARTH","LAUNCH_DATE":"2022-03-19","TLE_LINE1":"1 52123U 22029AM  23051.33040711  .00009581  00000-0  61900-3 0  9990","ARG_OF_PERICENTER":"93.4478","DECAY_DATE":null,"RA_OF_ASC_NODE":"27.1903","TLE_LINE2":"2 52123  53.2155  27.1903 0001395  93.4478 266.6674 15.08854802 52859"},{"NORAD_CAT_ID":"52124","MEAN_ELEMENT_THEORY":"SGP4","GP_ID":"226189594","OBJECT_TYPE":"PAYLOAD","EPOCH":"2023-02-20T16:23:11.852448","ECCENTRICITY":"0.00014800","REV_AT_EPOCH":"5276","ELEMENT_SET_NO":"999","EPHEMERIS_TYPE":"0","RA_OF_ASC_NODE":"35.6070","TLE_LINE2":"2 52124  53.2185  35.6070 0001480 104.6810 255.4346 15.08840630 52768","ARG_OF_PERICENTER":"104.6810","DECAY_DATE":null,"CENTER_NAME":"EARTH","LAUNCH_DATE":"2022-03-19","TIME_SYSTEM":"UTC","TLE_LINE1":"1 52124U 22029AN  23051.68277607 -.00000249  00000-0  24381-5 0  9992","PERIAPSIS":"538.720","INCLINATION":"53.2185","RCS_SIZE":"LARGE","FILE":"3817124","REF_FRAME":"TEME","MEAN_MOTION":"15.08840630","OBJECT_NAME":"STARLINK-3684","OBJECT_ID":"2022-029AN","MEAN_ANOMALY":"255.4346","BSTAR":"0.00000243810000","MEAN_MOTION_DOT":"-0.00000249","PERIOD":"95.438","SITE":"AFETR","COUNTRY_CODE":"US","MEAN_MOTION_DDOT":"0.0000000000000","CLASSIFICATION_TYPE":"U","SEMIMAJOR_AXIS":"6917.878","APOAPSIS":"540.767"},{"OBJECT_NAME":"STARLINK-3727","MEAN_ANOMALY":"279.8679","OBJECT_ID":"2022-029AP","BSTAR":"0.00057728000000","REF_FRAME":"TEME","FILE":"3816111","MEAN_MOTION":"15.08845933","SEMIMAJOR_AXIS":"6917.862","MEAN_MOTION_DDOT":"0.0000000000000","CLASSIFICATION_TYPE":"U","APOAPSIS":"540.651","MEAN_MOTION_DOT":"0.00008913","PERIOD":"95.437","COUNTRY_CODE":"US","SITE":"AFETR","ECCENTRICITY":"0.00013360","EPOCH":"2023-02-20T17:22:47.673696","REV_AT_EPOCH":"5291","EPHEMERIS_TYPE":"0","ELEMENT_SET_NO":"999","NORAD_CAT_ID":"52125","MEAN_ELEMENT_THEORY":"SGP4","GP_ID":"226168354","OBJECT_TYPE":"PAYLOAD","TIME_SYSTEM":"UTC","CENTER_NAME":"EARTH","LAUNCH_DATE":"2022-03-19","TLE_LINE1":"1 52125U 22029AP  23051.72416289  .00008913  00000-0  57728-3 0  9993","RCS_SIZE":"LARGE","INCLINATION":"53.2176","PERIAPSIS":"538.803","RA_OF_ASC_NODE":"25.4132","TLE_LINE2":"2 52125  53.2176  25.4132 0001336  80.2464 279.8679 15.08845933 52916","ARG_OF_PERICENTER":"80.2464","DECAY_DATE":null},{"MEAN_ELEMENT_THEORY":"SGP4","NORAD_CAT_ID":"52126","OBJECT_TYPE":"PAYLOAD","GP_ID":"226158895","ECCENTRICITY":"0.00013160","EPOCH":"2023-02-20T08:01:04.746144","REV_AT_EPOCH":"5284","EPHEMERIS_TYPE":"0","ELEMENT_SET_NO":"999","RA_OF_ASC_NODE":"27.1691","TLE_LINE2":"2 52126  53.2165  27.1691 0001316  93.2374 266.8769 15.08847395 52848","ARG_OF_PERICENTER":"93.2374","DECAY_DATE":null,"TIME_SYSTEM":"UTC","CENTER_NAME":"EARTH","LAUNCH_DATE":"2022-03-19","TLE_LINE1":"1 52126U 22029AQ  23051.33408271  .00002919  00000-0  20139-3 0  9999","RCS_SIZE":"LARGE","INCLINATION":"53.2165","PERIAPSIS":"538.812","REF_FRAME":"TEME","FILE":"3815761","MEAN_MOTION":"15.08847395","OBJECT_NAME":"STARLINK-3732","OBJECT_ID":"2022-029AQ","MEAN_ANOMALY":"266.8769","BSTAR":"0.00020139000000","MEAN_MOTION_DOT":"0.00002919","PERIOD":"95.437","COUNTRY_CODE":"US","SITE":"AFETR","SEMIMAJOR_AXIS":"6917.858","MEAN_MOTION_DDOT":"0.0000000000000","CLASSIFICATION_TYPE":"U","APOAPSIS":"540.633"},{"APOAPSIS":"540.464","SEMIMAJOR_AXIS":"6917.848","MEAN_MOTION_DDOT":"0.0000000000000","CLASSIFICATION_TYPE":"U","SITE":"AFETR","COUNTRY_CODE":"US","PERIOD":"95.437","MEAN_MOTION_DOT":"0.00005274","OBJECT_NAME":"STARLINK-3715","BSTAR":"0.00034909000000","OBJECT_ID":"2022-029AR","MEAN_ANOMALY":"249.7330","REF_FRAME":"TEME","FILE":"3815761","MEAN_MOTION":"15.08850596","TLE_LINE1":"1 52127U 22029AR  23051.19056618  .00005274  00000-0  34909-3 0  9995","TIME_SYSTEM":"UTC","LAUNCH_DATE":"2022-03-19","CENTER_NAME":"EARTH","RCS_SIZE":"LARGE","INCLINATION":"53.2178","PERIAPSIS":"538.962","TLE_LINE2":"2 52127  53.2178  27.8139 0001086 110.3779 249.7330 15.08850596 52820","RA_OF_ASC_NODE":"27.8139","DECAY_DATE":null,"ARG_OF_PERICENTER":"110.3779","ECCENTRICITY":"0.00010860","EPOCH":"2023-02-20T04:34:24.917952","EPHEMERIS_TYPE":"0","ELEMENT_SET_NO":"999","REV_AT_EPOCH":"5282","NORAD_CAT_ID":"52127","MEAN_ELEMENT_THEORY":"SGP4","GP_ID":"226159146","OBJECT_TYPE":"PAYLOAD"},{"REV_AT_EPOCH":"5285","ELEMENT_SET_NO":"999","EPHEMERIS_TYPE":"0","EPOCH":"2023-02-20T07:34:34.759776","ECCENTRICITY":"0.00014910","OBJECT_TYPE":"PAYLOAD","GP_ID":"226157895","MEAN_ELEMENT_THEORY":"SGP4","NORAD_CAT_ID":"52129","PERIAPSIS":"538.650","INCLINATION":"53.2191","RCS_SIZE":"LARGE","CENTER_NAME":"EARTH","LAUNCH_DATE":"2022-03-19","TIME_SYSTEM":"UTC","TLE_LINE1":"1 52129U 22029AT  23051.31568009  .00004683  00000-0  31192-3 0  9997","ARG_OF_PERICENTER":"86.6695","DECAY_DATE":null,"RA_OF_ASC_NODE":"27.2477","TLE_LINE2":"2 52129  53.2191  27.2477 0001491  86.6695 273.4468 15.08861030 52852","OBJECT_ID":"2022-029AT","MEAN_ANOMALY":"273.4468","BSTAR":"0.00031192000000","OBJECT_NAME":"STARLINK-3661","MEAN_MOTION":"15.08861030","FILE":"3815761","REF_FRAME":"TEME","MEAN_MOTION_DDOT":"0.0000000000000","CLASSIFICATION_TYPE":"U","SEMIMAJOR_AXIS":"6917.816","APOAPSIS":"540.713","MEAN_MOTION_DOT":"0.00004683","PERIOD":"95.436","SITE":"AFETR","COUNTRY_CODE":"US"},{"FILE":"3815761","REF_FRAME":"TEME","MEAN_MOTION":"15.08845747","OBJECT_NAME":"STARLINK-3711","MEAN_ANOMALY":"273.7495","OBJECT_ID":"2022-029AV","BSTAR":"0.00001577900000","MEAN_MOTION_DOT":"-0.00000037","PERIOD":"95.437","SITE":"AFETR","COUNTRY_CODE":"US","MEAN_MOTION_DDOT":"0.0000000000000","CLASSIFICATION_TYPE":"U","SEMIMAJOR_AXIS":"6917.863","APOAPSIS":"540.458","NORAD_CAT_ID":"52131","MEAN_ELEMENT_THEORY":"SGP4","GP_ID":"226158145","OBJECT_TYPE":"PAYLOAD","EPOCH":"2023-02-20T07:29:17.333952","ECCENTRICITY":"0.00010550","REV_AT_EPOCH":"5285","ELEMENT_SET_NO":"999","EPHEMERIS_TYPE":"0","RA_OF_ASC_NODE":"27.2721","TLE_LINE2":"2 52131  53.2176  27.2721 0001055  86.3618 273.7495 15.08845747 52858","ARG_OF_PERICENTER":"86.3618","DECAY_DATE":null,"CENTER_NAME":"EARTH","LAUNCH_DATE":"2022-03-19","TIME_SYSTEM":"UTC","TLE_LINE1":"1 52131U 22029AV  23051.31200618 -.00000037  00000-0  15779-4 0  9993","INCLINATION":"53.2176","PERIAPSIS":"538.998","RCS_SIZE":"LARGE"},{"OBJECT_NAME":"STARLINK-3718","BSTAR":"0.00035357000000","MEAN_ANOMALY":"240.7781","OBJECT_ID":"2022-029AW","FILE":"3816113","REF_FRAME":"TEME","MEAN_MOTION":"15.08817406","APOAPSIS":"540.632","MEAN_MOTION_DDOT":"0.0000000000000","CLASSIFICATION_TYPE":"U","SEMIMAJOR_AXIS":"6917.949","SITE":"AFETR","COUNTRY_CODE":"US","PERIOD":"95.439","MEAN_MOTION_DOT":"0.00005340","EPOCH":"2023-02-20T15:36:50.456736","ECCENTRICITY":"0.00011820","ELEMENT_SET_NO":"999","EPHEMERIS_TYPE":"0","REV_AT_EPOCH":"5290","NORAD_CAT_ID":"52132","MEAN_ELEMENT_THEORY":"SGP4","GP_ID":"226168696","OBJECT_TYPE":"PAYLOAD","TLE_LINE1":"1 52132U 22029AW  23051.65058399  .00005340  00000-0  35357-3 0  9992","CENTER_NAME":"EARTH","LAUNCH_DATE":"2022-03-19","TIME_SYSTEM":"UTC","INCLINATION":"53.2165","PERIAPSIS":"538.997","RCS_SIZE":"LARGE","TLE_LINE2":"2 52132  53.2165  25.7493 0001182 119.3329 240.7781 15.08817406 52902","RA_OF_ASC_NODE":"25.7493","DECAY_DATE":null,"ARG_OF_PERICENTER":"119.3329"}];
